{
    "links": {
        "self": "http://www.neowsapp.com/rest/v1/neo/3184157?api_key=iIulBulltgU6a56xZRHN4H3l9WmuAYTsLGpBGhQ2"
    },
    "id": "3184157",
    "neo_reference_id": "3184157",
    "name": "(2004 MS1)",
    "designation": "2004 MS1",
    "nasa_jpl_url": "http://ssd.jpl.nasa.gov/sbdb.cgi?sstr=3184157",
    "absolute_magnitude_h": 22.3,
    "estimated_diameter": {
        "kilometers": {
            "estimated_diameter_min": 0.0921626549,
            "estimated_diameter_max": 0.2060819612
        },
        "meters": {
            "estimated_diameter_min": 92.1626548503,
            "estimated_diameter_max": 206.0819612321
        },
        "miles": {
            "estimated_diameter_min": 0.057267201,
            "estimated_diameter_max": 0.1280533543
        },
        "feet": {
            "estimated_diameter_min": 302.370924539,
            "estimated_diameter_max": 676.1219416887
        }
    },
    "is_potentially_hazardous_asteroid": false,
    "close_approach_data": [
        {
            "close_approach_date": "2004-06-13",
            "close_approach_date_full": "2004-Jun-13 14:56",
            "epoch_date_close_approach": 1087138560000,
            "relative_velocity": {
                "kilometers_per_second": "11.1869395907",
                "kilometers_per_hour": "40272.9825266881",
                "miles_per_hour": "25024.0651705413"
            },
            "miss_distance": {
                "astronomical": "0.0184735307",
                "lunar": "7.1862034423",
                "kilometers": "2763600.844099609",
                "miles": "1717221.9358842442"
            },
            "orbiting_body": "Earth"
        }
    ],
    "orbital_data": {
        "orbit_id": "13",
        "orbit_determination_date": "2017-04-06 09:12:36",
        "first_observation_date": "2004-06-18",
        "last_observation_date": "2004-07-09",
        "data_arc_in_days": 21,
        "observations_used": 90,
        "orbit_uncertainty": "8",
        "minimum_orbit_intersection": ".00610264",
        "jupiter_tisserand_invariant": "3.343",
        "epoch_osculation": "2453177.5",
        "eccentricity": ".5909648689279385",
        "semi_major_axis": "2.278934765199565",
        "inclination": "6.970726389262901",
        "ascending_node_longitude": "263.3710999378372",
        "orbital_period": "1256.597719761796",
        "perihelion_distance": ".9321643803880816",
        "perihelion_argument": "324.2170173998962",
        "aphelion_distance": "3.625705150011048",
        "perihelion_time": "2453142.666639466120",
        "mean_anomaly": "9.979335148382981",
        "mean_motion": ".2864878666724324",
        "equinox": "J2000",
        "orbit_class": {
            "orbit_class_type": "APO",
            "orbit_class_description": "Near-Earth asteroid orbits which cross the Earth’s orbit similar to that of 1862 Apollo",
            "orbit_class_range": "a (semi-major axis) > 1.0 AU; q (perihelion) < 1.017 AU"
        }
    },
    "is_sentry_object": false
}